NORAD_CAT_ID,OBJECT_NAME,OBJECT_TYPE,EPOCH,MEAN_MOTION,ECCENTRICITY,INCLINATION,RA_OF_ASC_NODE,ARG_OF_PERICENTER,MEAN_ANOMALY,BSTAR,MEAN_MOTION_DOT,MEAN_MOTION_DDOT,TLE_LINE0,TLE_LINE1,TLE_LINE2,SEMIMAJOR_AXIS,PERIOD,APOGEE,PERIGEE,DECAYED
52493.0,STARLINK-3883,PAYLOAD,2024-03-21 14:10:12,15.08842388,0.0001314,53.2182,32.7878,102.0708,258.0432,6.5437e-05,7.54e-06,0.0,0 STARLINK-3883,1 52493U 22049AU  24081.59042807  .00000754  00000-0  65437-4 0  9995,2 52493  53.2182  32.7878 0001314 102.0708 258.0432 15.08842388103980,6917.873,95.437,540.647,538.829,0.0
52493.0,STARLINK-3883,PAYLOAD,2024-03-21 20:31:45,15.08841186,0.0001375,53.2174,31.5994,118.9,241.213,4.2821e-05,3.94e-06,0.0,0 STARLINK-3883,1 52493U 22049AU  24081.85538799  .00000394  00000-0  42821-4 0  9996,2 52493  53.2174  31.5994 0001375 118.9000 241.2130 15.08841186104025,6917.877,95.437,540.693,538.791,0.0
52493.0,STARLINK-3883,PAYLOAD,2024-03-22 02:53:16,15.08859803,0.0001788,53.218,30.4108,133.7103,226.4038,0.00037166,5.635e-05,0.0,0 STARLINK-3883,1 52493U 22049AU  24082.12033503  .00005635  00000-0  37166-3 0  9998,2 52493  53.2180  30.4108 0001788 133.7103 226.4038 15.08859803104223,6917.82,95.436,540.922,538.448,0.0
52493.0,STARLINK-3883,PAYLOAD,2024-03-22 06:04:03,15.08866411,0.000154,53.2184,29.8134,119.7703,240.3443,0.00052886,8.145e-05,0.0,0 STARLINK-3883,1 52493U 22049AU  24082.25281334  .00008145  00000-0  52886-3 0  9994,2 52493  53.2184  29.8134 0001540 119.7703 240.3443 15.08866411104086,6917.8,95.436,540.73,538.599,0.0
52493.0,STARLINK-3883,PAYLOAD,2024-03-22 20:22:32,15.08833685,0.0001292,53.2176,27.1397,101.2691,258.8446,-1.7667e-05,-5.69e-06,0.0,0 STARLINK-3883,1 52493U 22049AU  24082.84899078 -.00000569  00000-0 -17667-4 0  9992,2 52493  53.2176  27.1397 0001292 101.2691 258.8446 15.08833685104337,6917.9,95.438,540.658,538.871,0.0
52493.0,STARLINK-3883,PAYLOAD,2024-03-23 05:54:51,15.08842661,0.0001594,53.2183,25.354,115.7851,244.3306,0.00014783,2.066e-05,0.0,0 STARLINK-3883,1 52493U 22049AU  24083.24642824  .00002066  00000-0  14783-3 0  9999,2 52493  53.2183  25.3540 0001594 115.7851 244.3306 15.08842661104393,6917.872,95.437,540.84,538.635,0.0
52493.0,STARLINK-3883,PAYLOAD,2024-03-24 05:45:37,15.08859207,0.0001912,53.2184,20.8875,130.6134,229.5025,0.00034433,5.199e-05,0.0,0 STARLINK-3883,1 52493U 22049AU  24084.24001937  .00005199  00000-0  34433-3 0  9998,2 52493  53.2184  20.8875 0001912 130.6134 229.5025 15.08859207104543,6917.822,95.436,541.009,538.364,0.0
52493.0,STARLINK-3883,PAYLOAD,2024-03-24 20:04:07,15.08833946,0.0002289,53.2177,18.214,108.1451,251.9791,0.00013758,1.902e-05,0.0,0 STARLINK-3883,1 52493U 22049AU  24084.83619727  .00001902  00000-0  13758-3 0  9990,2 52493  53.2177  18.2140 0002289 108.1451 251.9791 15.08833946104632,6917.899,95.438,541.347,538.18,0.0
52493.0,STARLINK-3883,PAYLOAD,2024-03-24 23:14:53,15.08833884,0.0001922,53.2179,17.6207,118.8809,241.2376,0.00015853,2.235e-05,0.0,0 STARLINK-3883,1 52493U 22049AU  24084.96867806  .00002235  00000-0  15853-3 0  9995,2 52493  53.2179  17.6207 0001922 118.8809 241.2376 15.08833884104495,6917.899,95.438,541.094,538.434,0.0
52493.0,STARLINK-3883,PAYLOAD,2024-03-25 11:57:59,15.08845864,0.000149,53.2184,15.2445,70.2372,289.8781,0.0015086,0.00023807,0.0,0 STARLINK-3883,1 52493U 22049AU  24085.49860360  .00023807  00000-0  15086-2 0  9997,2 52493  53.2184  15.2445 0001490  70.2372 289.8781 15.08845864104573,6917.862,95.437,540.758,538.697,0.0
52493.0,STARLINK-3883,PAYLOAD,2024-03-26 05:27:14,15.08836256,0.0001364,53.2186,11.9744,79.5169,280.5976,0.00077161,0.00012012,0.0,0 STARLINK-3883,1 52493U 22049AU  24086.22724566  .00012012  00000-0  77161-3 0  9995,2 52493  53.2186  11.9744 0001364  79.5169 280.5976 15.08836256104845,6917.892,95.438,540.7,538.813,0.0
52493.0,STARLINK-3883,PAYLOAD,2024-03-26 11:48:46,15.08830379,0.0001332,53.2181,10.7843,74.52,285.594,0.00031955,4.8e-05,0.0,0 STARLINK-3883,1 52493U 22049AU  24086.49220834  .00004800  00000-0  31955-3 0  9990,2 52493  53.2181  10.7843 0001332  74.5200 285.5940 15.08830379104726,6917.91,95.438,540.696,538.853,0.0
52493.0,STARLINK-3883,PAYLOAD,2024-03-26 22:56:28,15.0883388,0.0001329,53.2178,8.7027,73.1214,286.9924,0.00022809,3.343e-05,0.0,0 STARLINK-3883,1 52493U 22049AU  24086.95588911  .00003343  00000-0  22809-3 0  9993,2 52493  53.2178   8.7027 0001329  73.1214 286.9924 15.08833880104793,6917.899,95.438,540.683,538.845,0.0
52493.0,STARLINK-3883,PAYLOAD,2024-03-27 11:39:33,15.08848693,0.000158,53.2193,6.323,76.1936,283.9232,0.00023751,3.495e-05,0.0,0 STARLINK-3883,1 52493U 22049AU  24087.48580230  .00003495  00000-0  23751-3 0  9993,2 52493  53.2193   6.3230 0001580  76.1936 283.9232 15.08848693105038,6917.854,95.437,540.812,538.626,0.0
52493.0,STARLINK-3883,PAYLOAD,2024-03-28 11:30:20,15.08840589,0.0001434,53.2189,1.8646,82.947,277.1686,9.7694e-05,1.267e-05,0.0,0 STARLINK-3883,1 52493U 22049AU  24088.47940610  .00001267  00000-0  97694-4 0  9998,2 52493  53.2189   1.8646 0001434  82.9470 277.1686 15.08840589105180,6917.879,95.438,540.736,538.752,0.0
52493.0,STARLINK-3883,PAYLOAD,2024-03-28 22:38:02,15.08842,0.0001582,53.2198,359.7825,78.7367,281.3803,8.4096e-05,1.051e-05,0.0,0 STARLINK-3883,1 52493U 22049AU  24088.94308631  .00001051  00000-0  84096-4 0  9994,2 52493  53.2198 359.7825 0001582  78.7367 281.3803 15.08842000105094,6917.874,95.437,540.834,538.645,0.0
52493.0,STARLINK-3883,PAYLOAD,2024-03-29 11:21:07,15.08850534,0.0001614,53.2195,357.4068,76.4108,283.7064,0.00014429,2.01e-05,0.0,0 STARLINK-3883,1 52493U 22049AU  24089.47300123  .00002010  00000-0  14429-3 0  9999,2 52493  53.2195 357.4068 0001614  76.4108 283.7064 15.08850534105174,6917.848,95.437,540.83,538.597,0.0
52493.0,STARLINK-3883,PAYLOAD,2024-03-29 17:42:39,15.08845219,0.0001325,53.2182,356.2164,88.0712,272.0431,0.00020521,2.98e-05,0.0,0 STARLINK-3883,1 52493U 22049AU  24089.73796281  .00002980  00000-0  20521-3 0  9998,2 52493  53.2182 356.2164 0001325  88.0712 272.0431 15.08845219105378,6917.864,95.437,540.646,538.813,0.0
52493.0,STARLINK-3883,PAYLOAD,2024-03-29 22:28:49,15.08847437,0.0001403,53.2185,355.3253,84.0091,276.1061,0.00021494,3.135e-05,0.0,0 STARLINK-3883,1 52493U 22049AU  24089.93668178  .00003135  00000-0  21494-3 0  9996,2 52493  53.2185 355.3253 0001403  84.0091 276.1061 15.08847437105247,6917.858,95.437,540.693,538.752,0.0
52493.0,STARLINK-3883,PAYLOAD,2024-03-30 03:14:58,15.08857032,0.0001318,53.217,354.4317,96.772,263.3422,0.00019713,2.852e-05,0.0,0 STARLINK-3883,1 52493U 22049AU  24090.13539464  .00002852  00000-0  19713-3 0  9991,2 52493  53.2170 354.4317 0001318  96.7720 263.3422 15.08857032105438,6917.828,95.436,540.605,538.782,0.0
52493.0,STARLINK-3883,PAYLOAD,2024-03-30 20:44:13,15.08838825,0.0001547,53.2191,351.1629,75.8517,284.2647,4.95e-05,5e-06,0.0,0 STARLINK-3883,1 52493U 22049AU  24090.86404664  .00000500  00000-0  49500-4 0  9990,2 52493  53.2191 351.1629 0001547  75.8517 284.2647 15.08838825105549,6917.884,95.438,540.819,538.679,0.0
52493.0,STARLINK-3883,PAYLOAD,2024-03-30 22:19:36,15.08838325,0.000163,53.2192,350.8674,67.4471,292.6694,4.4422e-05,4.19e-06,0.0,0 STARLINK-3883,1 52493U 22049AU  24090.93028772  .00000419  00000-0  44422-4 0  9997,2 52493  53.2192 350.8674 0001630  67.4471 292.6694 15.08838325105398,6917.886,95.438,540.878,538.623,0.0
52493.0,STARLINK-3883,PAYLOAD,2024-03-31 03:05:45,15.08845055,0.0001409,53.2174,349.9704,89.5031,270.6123,0.00013476,1.858e-05,0.0,0 STARLINK-3883,1 52493U 22049AU  24091.12900320  .00001858  00000-0  13476-3 0  9999,2 52493  53.2174 349.9704 0001409  89.5031 270.6123 15.08845055105427,6917.865,95.437,540.705,538.755,0.0
52493.0,STARLINK-3883,PAYLOAD,2024-03-31 22:10:23,15.08845541,0.0001482,53.2178,346.4019,87.9247,272.1915,0.00011894,1.606e-05,0.0,0 STARLINK-3883,1 52493U 22049AU  24091.92388168  .00001606  00000-0  11894-3 0  9990,2 52493  53.2178 346.4019 0001482  87.9247 272.1915 15.08845541105543,6917.863,95.437,540.754,538.703,0.0
52493.0,STARLINK-3883,PAYLOAD,2024-03-31 23:45:46,15.08848393,0.000141,53.2181,346.1043,84.685,275.4303,0.00025644,3.797e-05,0.0,0 STARLINK-3883,1 52493U 22049AU  24091.99012087  .00003797  00000-0  25644-3 0  9992,2 52493  53.2181 346.1043 0001410  84.6850 275.4303 15.08848393105710,6917.855,95.437,540.695,538.744,0.0
52493.0,STARLINK-3883,PAYLOAD,2024-04-01 09:18:05,15.08841431,0.0001383,53.2177,344.3213,84.1543,275.9607,9.9384e-05,1.294e-05,0.0,0 STARLINK-3883,1 52493U 22049AU  24092.38756201  .00001294  00000-0  99384-4 0  9992,2 52493  53.2177 344.3213 0001383  84.1543 275.9607 15.08841431105771,6917.876,95.437,540.698,538.784,0.0
52493.0,STARLINK-3883,PAYLOAD,2024-04-02 09:08:52,15.08838826,0.0001503,53.2187,339.8656,100.7879,259.3283,4.4242e-05,4.16e-06,0.0,0 STARLINK-3883,1 52493U 22049AU  24093.38116596  .00000416  00000-0  44242-4 0  9998,2 52493  53.2187 339.8656 0001503 100.7879 259.3283 15.08838826105920,6917.884,95.438,540.789,538.709,0.0
52493.0,STARLINK-3883,PAYLOAD,2024-04-02 23:27:21,15.08832817,0.000159,53.2196,337.19,108.0526,252.0639,-0.00010973,-2.034e-05,0.0,0 STARLINK-3883,1 52493U 22049AU  24093.97733077 -.00002034  00000-0 -10973-3 0  9995,2 52493  53.2196 337.1900 0001590 108.0526 252.0639 15.08832817105850,6917.902,95.438,540.867,538.667,0.0
52493.0,STARLINK-3883,PAYLOAD,2024-04-03 08:59:40,15.08837337,0.0001583,53.2201,335.4047,102.2742,257.8427,-9.446e-06,-4.38e-06,0.0,0 STARLINK-3883,1 52493U 22049AU  24094.37476973 -.00000438  00000-0 -94460-5 0  9990,2 52493  53.2201 335.4047 0001583 102.2742 257.8427 15.08837337105915,6917.889,95.438,540.849,538.658,0.0
52493.0,STARLINK-3883,PAYLOAD,2024-04-03 20:07:22,15.08833764,0.0001556,53.2202,333.3229,108.9439,251.1722,0.00020378,2.956e-05,0.0,0 STARLINK-3883,1 52493U 22049AU  24094.83845387  .00002956  00000-0  20378-3 0  9990,2 52493  53.2202 333.3229 0001556 108.9439 251.1722 15.08833764105983,6917.899,95.438,540.841,538.688,0.0
